[{"OBJECT_NAME":"SITRO-AIS 13","OBJECT_ID":"2024-199J","EPOCH":"2026-03-09T21:50:28.432320","MEAN_MOTION":14.9731664,"ECCENTRICITY":0.00074694,"INCLINATION":97.3312,"RA_OF_ASC_NODE":274.5755,"ARG_OF_PERICENTER":53.5174,"MEAN_ANOMALY":306.6736,"EPHEMERIS_TYPE":0,"CLASSIFICATION_TYPE":"U","NORAD_CAT_ID":61743,"ELEMENT_SET_NO":999,"REV_AT_EPOCH":11713,"BSTAR":0.00039590089,"MEAN_MOTION_DOT":4.542e-5,"MEAN_MOTION_DDOT":0},{"OBJECT_NAME":"STARLINK-34039","OBJECT_ID":"2025-098W","EPOCH":"2026-03-09T21:56:25.128672","MEAN_MOTION":14.98332542,"ECCENTRICITY":0.00023739,"INCLINATION":70.0002,"RA_OF_ASC_NODE":273.9873,"ARG_OF_PERICENTER":268.0885,"MEAN_ANOMALY":92.0002,"EPHEMERIS_TYPE":0,"CLASSIFICATION_TYPE":"U","NORAD_CAT_ID":63946,"ELEMENT_SET_NO":999,"REV_AT_EPOCH":4658,"BSTAR":0.0001503088,"MEAN_MOTION_DOT":1.701e-5,"MEAN_MOTION_DDOT":0}]
